*******************************************************************************
 Revised: April 12, 2021                 Earth                              399
 
 GEOPHYSICAL PROPERTIES (revised May 9, 2022):
  Vol. Mean Radius (km)    = 6371.01+-0.02   Mass x10^24 (kg)= 5.97219+-0.0006
  Equ. radius, km          = 6378.137        Mass layers:
  Polar axis, km           = 6356.752          Atmos         = 5.1   x 10^18 kg
  Flattening               = 1/298.257223563   oceans        = 1.4   x 10^21 kg
  Density, g/cm^3          = 5.51              crust         = 2.6   x 10^22 kg
  J2 (IERS 2010)           = 0.00108262545     mantle        = 4.043 x 10^24 kg
  g_p, m/s^2  (polar)      = 9.8321863685      outer core    = 1.835 x 10^24 kg
  g_e, m/s^2  (equatorial) = 9.7803267715      inner core    = 9.675 x 10^22 kg
  g_o, m/s^2               = 9.82022         Fluid core rad  = 3480 km
  GM, km^3/s^2             = 398600.435436   Inner core rad  = 1215 km
  GM 1-sigma, km^3/s^2     =      0.0014     Escape velocity = 11.186 km/s
  Rot. Rate (rad/s)        = 0.00007292115   Surface area:
  Mean sidereal day, hr    = 23.9344695944     land          = 1.48 x 10^8 km
  Mean solar day 2000.0, s = 86400.002         sea           = 3.62 x 10^8 km
  Mean solar day 1820.0, s = 86400.0         Love no., k2    = 0.299
  Moment of inertia        = 0.3308          Atm. pressure   = 1.0 bar
  Mean surface temp (Ts), K= 287.6           Volume, km^3    = 1.08321 x 10^12
  Mean effect. temp (Te), K= 255             Magnetic moment = 0.61 gauss Rp^3
  Geometric albedo         = 0.367           Vis. mag. V(1,0)= -3.86
  Solar Constant (W/m^2)   = 1367.6 (mean), 1414 (perihelion), 1322 (aphelion)
 HELIOCENTRIC ORBIT CHARACTERISTICS:
  Obliquity to orbit, deg  = 23.4392911  Sidereal orb period  = 1.0000174 y
  Orbital speed, km/s      = 29.79       Sidereal orb period  = 365.25636 d
  Mean daily motion, deg/d = 0.9856474   Hill's sphere radius = 234.9       
*******************************************************************************


*******************************************************************************
Ephemeris / WWW_USER Tue Feb 28 06:41:49 2023 Pasadena, USA      / Horizons
*******************************************************************************
Target body name: Earth (399)                     {source: DE441}
Center body name: Sun (10)                        {source: DE441}
Center-site name: BODY CENTER
*******************************************************************************
Start time      : A.D. 1716-Jan-01 00:00:00.0000 TDB
Stop  time      : A.D. 2023-Jan-01 00:00:00.0000 TDB
Step-size       : 1 calendar months
*******************************************************************************
Center geodetic : 0.0, 0.0, 0.0                   {E-lon(deg),Lat(deg),Alt(km)}
Center cylindric: 0.0, 0.0, 0.0                   {E-lon(deg),Dxy(km),Dz(km)}
Center radii    : 696000.0, 696000.0, 696000.0 km {Equator_a, b, pole_c}
Output units    : AU-D
Calendar mode   : Mixed Julian/Gregorian
Output type     : GEOMETRIC cartesian states
Output format   : 1 (position only)
Reference frame : Ecliptic of J2000.0
*******************************************************************************
            JDTDB,            Calendar Date (TDB),                      X,                      Y,                      Z,
**************************************************************************************************************************
$$SOE
2352564.500000000, A.D. 1729-Jan-01 00:00:00.0000, -2.455319944310627E-01,  9.520616798829893E-01,  5.757571494558065E-04,
2352595.500000000, A.D. 1729-Feb-01 00:00:00.0000, -7.092723403035728E-01,  6.848972239659452E-01,  3.856014407696955E-04,
2352623.500000000, A.D. 1729-Mar-01 00:00:00.0000, -9.546112498156794E-01,  2.696268139418852E-01,  1.170484797539290E-04,
2352654.500000000, A.D. 1729-Apr-01 00:00:00.0000, -9.664635453849620E-01, -2.592086290598334E-01, -2.108623028475898E-04,
2352684.500000000, A.D. 1729-May-01 00:00:00.0000, -7.220345058121047E-01, -7.045242805357977E-01, -4.729669390782565E-04,
2352715.500000000, A.D. 1729-Jun-01 00:00:00.0000, -2.776382317276256E-01, -9.761092001179186E-01, -6.163431793444352E-04,
2352745.500000000, A.D. 1729-Jul-01 00:00:00.0000,  2.244813537479182E-01, -9.917494631932674E-01, -5.989564676957854E-04,
2352776.500000000, A.D. 1729-Aug-01 00:00:00.0000,  6.833851183400409E-01, -7.497301182805979E-01, -4.253396974614842E-04,
2352807.500000000, A.D. 1729-Sep-01 00:00:00.0000,  9.599100368410372E-01, -3.081023047549784E-01, -1.399840276811564E-04,
2352837.500000000, A.D. 1729-Oct-01 00:00:00.0000,  9.796850167876855E-01,  1.998268140776509E-01,  1.722199376824015E-04,
2352868.500000000, A.D. 1729-Nov-01 00:00:00.0000,  7.325272045729871E-01,  6.678675620354706E-01,  4.457151962488742E-04,
2352898.500000000, A.D. 1729-Dec-01 00:00:00.0000,  2.939445076380832E-01,  9.403894102880856E-01,  5.906381900985094E-04,
2352929.500000000, A.D. 1730-Jan-01 00:00:00.0000, -2.412310055081547E-01,  9.531119229437528E-01,  5.720740153012553E-04,
2352960.500000000, A.D. 1730-Feb-01 00:00:00.0000, -7.061184377744725E-01,  6.880325819826622E-01,  3.877124854379868E-04,
2352988.500000000, A.D. 1730-Mar-01 00:00:00.0000, -9.533048616787883E-01,  2.738493412785706E-01,  1.211437178919802E-04,
2353019.500000000, A.D. 1730-Apr-01 00:00:00.0000, -9.674943904736578E-01, -2.549080283134302E-01, -2.026130897513584E-04,
2353049.500000000, A.D. 1730-May-01 00:00:00.0000, -7.250389922967030E-01, -7.012858063360966E-01, -4.643048557501509E-04,
2353080.500000000, A.D. 1730-Jun-01 00:00:00.0000, -2.818709258079274E-01, -9.748108532658306E-01, -6.112882312527865E-04,
2353110.500000000, A.D. 1730-Jul-01 00:00:00.0000,  2.201493581591671E-01, -9.926650458257270E-01, -5.991889419503677E-04,
2353141.500000000, A.D. 1730-Aug-01 00:00:00.0000,  6.800862718359871E-01, -7.527088875044690E-01, -4.315075108723577E-04,
2353172.500000000, A.D. 1730-Sep-01 00:00:00.0000,  9.585655293611327E-01, -3.123601407616060E-01, -1.481532450912044E-04,
2353202.500000000, A.D. 1730-Oct-01 00:00:00.0000,  9.806215769433563E-01,  1.954406408465588E-01,  1.656239027127616E-04,
2353233.500000000, A.D. 1730-Nov-01 00:00:00.0000,  7.356103402604667E-01,  6.645724373653017E-01,  4.440236835112169E-04,
2353263.500000000, A.D. 1730-Dec-01 00:00:00.0000,  2.982941488248281E-01,  9.390787769653647E-01,  5.930915677960537E-04,
2353294.500000000, A.D. 1731-Jan-01 00:00:00.0000, -2.368112325222040E-01,  9.542577004412262E-01,  5.776529338689031E-04,
2353325.500000000, A.D. 1731-Feb-01 00:00:00.0000, -7.029265001035865E-01,  6.912913152514963E-01,  3.931717540935920E-04,
2353353.500000000, A.D. 1731-Mar-01 00:00:00.0000, -9.519809181483619E-01,  2.781881978358640E-01,  1.278937829018137E-04,
2353384.500000000, A.D. 1731-Apr-01 00:00:00.0000, -9.685470323353302E-01, -2.505804981621665E-01, -1.990057434634072E-04,
2353414.500000000, A.D. 1731-May-01 00:00:00.0000, -7.280271981766605E-01, -6.980979817589550E-01, -4.632604875410532E-04,
2353445.500000000, A.D. 1731-Jun-01 00:00:00.0000, -2.859877101171758E-01, -9.736033104797885E-01, -6.117221018625265E-04,
2353475.500000000, A.D. 1731-Jul-01 00:00:00.0000,  2.160003692610785E-01, -9.936246630723082E-01, -5.995468862960694E-04,
2353506.500000000, A.D. 1731-Aug-01 00:00:00.0000,  6.769925297123722E-01, -7.556281060498847E-01, -4.300881683708493E-04,
2353537.500000000, A.D. 1731-Sep-01 00:00:00.0000,  9.573577549582710E-01, -3.164684047212662E-01, -1.464433002567147E-04,
2353567.500000000, A.D. 1731-Oct-01 00:00:00.0000,  9.816020430357966E-01,  1.912151575648657E-01,  1.655369502696828E-04,
2353598.500000000, A.D. 1731-Nov-01 00:00:00.0000,  7.386354776337061E-01,  6.613953439752619E-01,  4.404714823822746E-04,
2353628.500000000, A.D. 1731-Dec-01 00:00:00.0000,  3.025396084792526E-01,  9.378124694694348E-01,  5.872455690891574E-04,
2353659.500000000, A.D. 1732-Jan-01 00:00:00.0000, -2.325044329612156E-01,  9.553432352992022E-01,  5.706707062017277E-04,
2353690.500000000, A.D. 1732-Feb-01 00:00:00.0000, -6.997902577369051E-01,  6.944125646267317E-01,  3.889454469170246E-04,
2353719.500000000, A.D. 1732-Mar-01 00:00:00.0000, -9.557249556663305E-01,  2.657934429050270E-01,  1.158438330675882E-04,
2353750.500000000, A.D. 1732-Apr-01 00:00:00.0000, -9.654485205533017E-01, -2.630514271731778E-01, -2.052620174410371E-04,
2353780.500000000, A.D. 1732-May-01 00:00:00.0000, -7.192662945331754E-01, -7.073680813027835E-01, -4.632220741110734E-04,
2353811.500000000, A.D. 1732-Jun-01 00:00:00.0000, -2.738300622888920E-01, -9.771826188947278E-01, -6.058896299840635E-04,
2353841.500000000, A.D. 1732-Jul-01 00:00:00.0000,  2.283237095171293E-01, -9.908563199994310E-01, -5.910865135277910E-04,
2353872.500000000, A.D. 1732-Aug-01 00:00:00.0000,  6.862581483338757E-01, -7.470558870032126E-01, -4.227884794055227E-04,
2353903.500000000, A.D. 1732-Sep-01 00:00:00.0000,  9.610450485792247E-01, -3.043540757965609E-01, -1.427283067801023E-04,
2353933.500000000, A.D. 1732-Oct-01 00:00:00.0000,  9.788116345390143E-01,  2.036669725797010E-01,  1.656573057209986E-04,
2353964.500000000, A.D. 1732-Nov-01 00:00:00.0000,  7.297793850069217E-01,  6.707474893017871E-01,  4.381923953014273E-04,
2353994.500000000, A.D. 1732-Dec-01 00:00:00.0000,  2.900833230629494E-01,  9.415252316722765E-01,  5.838509552336917E-04,
2354025.500000000, A.D. 1733-Jan-01 00:00:00.0000, -2.451476997754952E-01,  9.520958600738677E-01,  5.680906047273100E-04,
2354056.500000000, A.D. 1733-Feb-01 00:00:00.0000, -7.089520775287279E-01,  6.851477963707967E-01,  3.859352858687974E-04,
2354084.500000000, A.D. 1733-Mar-01 00:00:00.0000, -9.544417380196111E-01,  2.699791696469505E-01,  1.227119817465340E-04,
2354115.500000000, A.D. 1733-Apr-01 00:00:00.0000, -9.665024150461208E-01, -2.588062070403330E-01, -1.997093395249751E-04,
